AEHF-4 (USA 288)        
1 43651U 18079A   26062.78710181 -.00000288  00000+0  00000+0 0  9990
2 43651   1.4230 354.6396 0064077 359.0947  23.6400  1.00273405 27240
BEIDOU-3 G1             
1 43683U 18085A   26062.82815645 -.00000291  00000+0  00000+0 0  9992
2 43683   2.8091 100.4023 0001324  26.5692 112.7898  1.00268737 27005
GSAT-29                 
1 43698U 18089A   26062.76433959  .00000071  00000+0  00000+0 0  9994
2 43698   0.0594 273.8229 0001820  52.2702 165.6006  1.00271513 26734
ES'HAIL 2               
1 43700U 18090A   26062.80556189  .00000130  00000+0  00000+0 0  9992
2 43700   0.0190 229.8505 0002613 146.3075 101.1819  1.00270972 26620
GEO-KOMPSAT-2A          
1 43823U 18100A   26062.54061360 -.00000359  00000+0  00000+0 0  9997
2 43823   0.0217  70.8317 0001385 331.7632  81.5654  1.00269693 26575
GSAT-11                 
1 43824U 18100B   26062.76765949 -.00000091  00000+0  00000+0 0  9999
2 43824   0.0874 271.1954 0004933 143.9072  96.7598  1.00271737 26422
GSAT-7A                 
1 43864U 18105A   26062.76501552  .00000013  00000+0  00000+0 0  9999
2 43864   0.1006 277.5717 0002029  53.6535 168.4289  1.00270871 26394
COSMOS 2533             
1 43867U 18107A   26062.38640148 -.00000052  00000+0  00000+0 0  9991
2 43867   0.0183 115.5396 0000235 320.1138 294.5644  1.00268161 26377
BREEZE-M R/B            
1 43868U 18107B   26062.28270468 -.00000210  00000+0  00000+0 0  9991
2 43868   7.1316  75.0068 0721507 309.6315  44.3738  0.90470156 23752
TJS-3                   
1 43874U 18110A   26062.50186219 -.00000229  00000+0  00000+0 0  9997
2 43874   2.2725  81.7987 0016761 344.9026   1.8570  1.00349655 26355
ZHONGXING-2D            
1 43920U 19001A   26062.82616310 -.00000351  00000+0  00000+0 0  9990
2 43920   0.0545 293.4282 0001229 356.3917 299.1942  1.00272170 53028
ATLAS 5 CENTAUR DEB     
1 43959U 14055N   26060.67881907 -.00000084  00000+0  00000+0 0  9996
2 43959  19.8673 147.5600 5066114 155.2161 241.3417  1.81439855 49710
ATLAS 5 CENTAUR DEB     
1 43960U 14055P   26060.33375507 -.00000089  00000+0  00000+0 0  9990
2 43960  19.9480 148.1321 5084504 154.8513 242.3465  1.81619719 49684
ATLAS 5 CENTAUR DEB     
1 43967U 14055W   26060.69635602 -.00000096  00000+0  00000+0 0  9999
2 43967  20.0752 144.4809 5049433 161.8476 226.0090  1.82856519 50030
ATLAS 5 CENTAUR DEB     
1 43968U 14055X   26061.49763089 -.00000093  00000+0  00000+0 0  9997
2 43968  20.1221 141.9951 5055314 166.1749 215.5553  1.83130184 50120
ATLAS 5 CENTAUR DEB     
1 43969U 14055Y   26054.84512084 -.00000034  00000+0  00000+0 0  9991
2 43969  19.3984 160.4739 5089053 129.2912 288.0175  1.77735719 29350
ATLAS 5 CENTAUR DEB     
1 43981U 14055AL  26060.40502410 -.00000067  00000+0  00000+0 0  9992
2 43981  19.7794 148.7226 5150385 149.5994 254.2285  1.78790141 48853
