[{"OBJECT_NAME":"AEHF-4 (USA 288)","OBJECT_ID":"2018-079A","EPOCH":"2026-03-03T18:53:25.596384","MEAN_MOTION":1.00273405,"ECCENTRICITY":0.0064077,"INCLINATION":1.423,"RA_OF_ASC_NODE":354.6396,"ARG_OF_PERICENTER":359.0947,"MEAN_ANOMALY":23.64,"EPHEMERIS_TYPE":0,"CLASSIFICATION_TYPE":"U","NORAD_CAT_ID":43651,"ELEMENT_SET_NO":999,"REV_AT_EPOCH":2724,"BSTAR":0,"MEAN_MOTION_DOT":-2.88e-6,"MEAN_MOTION_DDOT":0},{"OBJECT_NAME":"BEIDOU-3 G1","OBJECT_ID":"2018-085A","EPOCH":"2026-03-03T19:52:32.717280","MEAN_MOTION":1.00268737,"ECCENTRICITY":0.0001324,"INCLINATION":2.8091,"RA_OF_ASC_NODE":100.4023,"ARG_OF_PERICENTER":26.5692,"MEAN_ANOMALY":112.7898,"EPHEMERIS_TYPE":0,"CLASSIFICATION_TYPE":"U","NORAD_CAT_ID":43683,"ELEMENT_SET_NO":999,"REV_AT_EPOCH":2700,"BSTAR":0,"MEAN_MOTION_DOT":-2.91e-6,"MEAN_MOTION_DDOT":0},{"OBJECT_NAME":"GSAT-29","OBJECT_ID":"2018-089A","EPOCH":"2026-03-03T18:20:38.940576","MEAN_MOTION":1.00271513,"ECCENTRICITY":0.000182,"INCLINATION":0.0594,"RA_OF_ASC_NODE":273.8229,"ARG_OF_PERICENTER":52.2702,"MEAN_ANOMALY":165.6006,"EPHEMERIS_TYPE":0,"CLASSIFICATION_TYPE":"U","NORAD_CAT_ID":43698,"ELEMENT_SET_NO":999,"REV_AT_EPOCH":2673,"BSTAR":0,"MEAN_MOTION_DOT":7.1e-7,"MEAN_MOTION_DDOT":0},{"OBJECT_NAME":"ES'HAIL 2","OBJECT_ID":"2018-090A","EPOCH":"2026-03-03T19:20:00.547296","MEAN_MOTION":1.00270972,"ECCENTRICITY":0.0002613,"INCLINATION":0.019,"RA_OF_ASC_NODE":229.8505,"ARG_OF_PERICENTER":146.3075,"MEAN_ANOMALY":101.1819,"EPHEMERIS_TYPE":0,"CLASSIFICATION_TYPE":"U","NORAD_CAT_ID":43700,"ELEMENT_SET_NO":999,"REV_AT_EPOCH":2662,"BSTAR":0,"MEAN_MOTION_DOT":1.3e-6,"MEAN_MOTION_DDOT":0},{"OBJECT_NAME":"GEO-KOMPSAT-2A","OBJECT_ID":"2018-100A","EPOCH":"2026-03-03T12:58:29.015040","MEAN_MOTION":1.00269693,"ECCENTRICITY":0.0001385,"INCLINATION":0.0217,"RA_OF_ASC_NODE":70.8317,"ARG_OF_PERICENTER":331.7632,"MEAN_ANOMALY":81.5654,"EPHEMERIS_TYPE":0,"CLASSIFICATION_TYPE":"U","NORAD_CAT_ID":43823,"ELEMENT_SET_NO":999,"REV_AT_EPOCH":2657,"BSTAR":0,"MEAN_MOTION_DOT":-3.59e-6,"MEAN_MOTION_DDOT":0},{"OBJECT_NAME":"GSAT-11","OBJECT_ID":"2018-100B","EPOCH":"2026-03-03T18:25:25.779936","MEAN_MOTION":1.00271737,"ECCENTRICITY":0.0004933,"INCLINATION":0.0874,"RA_OF_ASC_NODE":271.1954,"ARG_OF_PERICENTER":143.9072,"MEAN_ANOMALY":96.7598,"EPHEMERIS_TYPE":0,"CLASSIFICATION_TYPE":"U","NORAD_CAT_ID":43824,"ELEMENT_SET_NO":999,"REV_AT_EPOCH":2642,"BSTAR":0,"MEAN_MOTION_DOT":-9.1e-7,"MEAN_MOTION_DDOT":0},{"OBJECT_NAME":"GSAT-7A","OBJECT_ID":"2018-105A","EPOCH":"2026-03-03T18:21:37.340928","MEAN_MOTION":1.00270871,"ECCENTRICITY":0.0002029,"INCLINATION":0.1006,"RA_OF_ASC_NODE":277.5717,"ARG_OF_PERICENTER":53.6535,"MEAN_ANOMALY":168.4289,"EPHEMERIS_TYPE":0,"CLASSIFICATION_TYPE":"U","NORAD_CAT_ID":43864,"ELEMENT_SET_NO":999,"REV_AT_EPOCH":2639,"BSTAR":0,"MEAN_MOTION_DOT":1.3e-7,"MEAN_MOTION_DDOT":0},{"OBJECT_NAME":"COSMOS 2533","OBJECT_ID":"2018-107A","EPOCH":"2026-03-03T09:16:25.087872","MEAN_MOTION":1.00268161,"ECCENTRICITY":2.35e-5,"INCLINATION":0.0183,"RA_OF_ASC_NODE":115.5396,"ARG_OF_PERICENTER":320.1138,"MEAN_ANOMALY":294.5644,"EPHEMERIS_TYPE":0,"CLASSIFICATION_TYPE":"U","NORAD_CAT_ID":43867,"ELEMENT_SET_NO":999,"REV_AT_EPOCH":2637,"BSTAR":0,"MEAN_MOTION_DOT":-5.2e-7,"MEAN_MOTION_DDOT":0},{"OBJECT_NAME":"BREEZE-M R/B","OBJECT_ID":"2018-107B","EPOCH":"2026-03-03T06:47:05.684352","MEAN_MOTION":0.90470156,"ECCENTRICITY":0.07215077,"INCLINATION":7.1316,"RA_OF_ASC_NODE":75.0068,"ARG_OF_PERICENTER":309.6315,"MEAN_ANOMALY":44.3738,"EPHEMERIS_TYPE":0,"CLASSIFICATION_TYPE":"U","NORAD_CAT_ID":43868,"ELEMENT_SET_NO":999,"REV_AT_EPOCH":2375,"BSTAR":0,"MEAN_MOTION_DOT":-2.1e-6,"MEAN_MOTION_DDOT":0},{"OBJECT_NAME":"TJS-3","OBJECT_ID":"2018-110A","EPOCH":"2026-03-03T12:02:40.893216","MEAN_MOTION":1.00349655,"ECCENTRICITY":0.0016761,"INCLINATION":2.2725,"RA_OF_ASC_NODE":81.7987,"ARG_OF_PERICENTER":344.9026,"MEAN_ANOMALY":1.857,"EPHEMERIS_TYPE":0,"CLASSIFICATION_TYPE":"U","NORAD_CAT_ID":43874,"ELEMENT_SET_NO":999,"REV_AT_EPOCH":2635,"BSTAR":0,"MEAN_MOTION_DOT":-2.29e-6,"MEAN_MOTION_DDOT":0},{"OBJECT_NAME":"ZHONGXING-2D","OBJECT_ID":"2019-001A","EPOCH":"2026-03-03T19:49:40.491840","MEAN_MOTION":1.0027217,"ECCENTRICITY":0.0001229,"INCLINATION":0.0545,"RA_OF_ASC_NODE":293.4282,"ARG_OF_PERICENTER":356.3917,"MEAN_ANOMALY":299.1942,"EPHEMERIS_TYPE":0,"CLASSIFICATION_TYPE":"U","NORAD_CAT_ID":43920,"ELEMENT_SET_NO":999,"REV_AT_EPOCH":5302,"BSTAR":0,"MEAN_MOTION_DOT":-3.51e-6,"MEAN_MOTION_DDOT":0},{"OBJECT_NAME":"ATLAS 5 CENTAUR DEB","OBJECT_ID":"2014-055N","EPOCH":"2026-03-01T16:17:29.967648","MEAN_MOTION":1.81439855,"ECCENTRICITY":0.50661142,"INCLINATION":19.8673,"RA_OF_ASC_NODE":147.56,"ARG_OF_PERICENTER":155.2161,"MEAN_ANOMALY":241.3417,"EPHEMERIS_TYPE":0,"CLASSIFICATION_TYPE":"U","NORAD_CAT_ID":43959,"ELEMENT_SET_NO":999,"REV_AT_EPOCH":4971,"BSTAR":0,"MEAN_MOTION_DOT":-8.4e-7,"MEAN_MOTION_DDOT":0},{"OBJECT_NAME":"ATLAS 5 CENTAUR DEB","OBJECT_ID":"2014-055P","EPOCH":"2026-03-01T08:00:36.438048","MEAN_MOTION":1.81619719,"ECCENTRICITY":0.5084504,"INCLINATION":19.948,"RA_OF_ASC_NODE":148.1321,"ARG_OF_PERICENTER":154.8513,"MEAN_ANOMALY":242.3465,"EPHEMERIS_TYPE":0,"CLASSIFICATION_TYPE":"U","NORAD_CAT_ID":43960,"ELEMENT_SET_NO":999,"REV_AT_EPOCH":4968,"BSTAR":0,"MEAN_MOTION_DOT":-8.9e-7,"MEAN_MOTION_DDOT":0},{"OBJECT_NAME":"ATLAS 5 CENTAUR DEB","OBJECT_ID":"2014-055W","EPOCH":"2026-03-01T16:42:45.160128","MEAN_MOTION":1.82856519,"ECCENTRICITY":0.50494335,"INCLINATION":20.0752,"RA_OF_ASC_NODE":144.4809,"ARG_OF_PERICENTER":161.8476,"MEAN_ANOMALY":226.009,"EPHEMERIS_TYPE":0,"CLASSIFICATION_TYPE":"U","NORAD_CAT_ID":43967,"ELEMENT_SET_NO":999,"REV_AT_EPOCH":5003,"BSTAR":0,"MEAN_MOTION_DOT":-9.6e-7,"MEAN_MOTION_DDOT":0},{"OBJECT_NAME":"ATLAS 5 CENTAUR DEB","OBJECT_ID":"2014-055X","EPOCH":"2026-03-02T11:56:35.308896","MEAN_MOTION":1.83130184,"ECCENTRICITY":0.50553146,"INCLINATION":20.1221,"RA_OF_ASC_NODE":141.9951,"ARG_OF_PERICENTER":166.1749,"MEAN_ANOMALY":215.5553,"EPHEMERIS_TYPE":0,"CLASSIFICATION_TYPE":"U","NORAD_CAT_ID":43968,"ELEMENT_SET_NO":999,"REV_AT_EPOCH":5012,"BSTAR":0,"MEAN_MOTION_DOT":-9.3e-7,"MEAN_MOTION_DDOT":0},{"OBJECT_NAME":"ATLAS 5 CENTAUR DEB","OBJECT_ID":"2014-055Y","EPOCH":"2026-02-23T20:16:58.440576","MEAN_MOTION":1.77735719,"ECCENTRICITY":0.50890534,"INCLINATION":19.3984,"RA_OF_ASC_NODE":160.4739,"ARG_OF_PERICENTER":129.2912,"MEAN_ANOMALY":288.0175,"EPHEMERIS_TYPE":0,"CLASSIFICATION_TYPE":"U","NORAD_CAT_ID":43969,"ELEMENT_SET_NO":999,"REV_AT_EPOCH":2935,"BSTAR":0,"MEAN_MOTION_DOT":-3.4e-7,"MEAN_MOTION_DDOT":0},{"OBJECT_NAME":"ATLAS 5 CENTAUR DEB","OBJECT_ID":"2014-055AL","EPOCH":"2026-03-01T09:43:14.082240","MEAN_MOTION":1.78790141,"ECCENTRICITY":0.51503857,"INCLINATION":19.7794,"RA_OF_ASC_NODE":148.7226,"ARG_OF_PERICENTER":149.5994,"MEAN_ANOMALY":254.2285,"EPHEMERIS_TYPE":0,"CLASSIFICATION_TYPE":"U","NORAD_CAT_ID":43981,"ELEMENT_SET_NO":999,"REV_AT_EPOCH":4885,"BSTAR":0,"MEAN_MOTION_DOT":-6.7e-7,"MEAN_MOTION_DDOT":0}]
